SMAP                    
1 40376U 15003A   26185.44740038  .00000521  00000+0  10995-3 0  9995
2 40376  98.1278 192.2975 0001503  97.9514 262.1859 14.63382373610141
SKYSAT-C4               
1 41771U 16058B   26185.32375483  .00022372  00000+0  41239-3 0  9994
2 41771  96.9163 206.3834 0002854 134.2708 225.8779 15.49141148548124
SKYSAT-C5               
1 41772U 16058C   26185.57931001  .00013960  00000+0  41657-3 0  9993
2 41772  97.0456 225.4450 0002162 184.1062 176.0164 15.34732331546416
SKYSAT-C2               
1 41773U 16058D   26185.51811677  .00022648  00000+0  52378-3 0  9999
2 41773  97.0161 206.9640 0002817  29.5218 330.6189 15.42486152547723
SKYSAT-C3               
1 41774U 16058E   26185.54177907  .00043204  00000+0  68379-3 0  9993
2 41774  96.8996 215.7278 0001702 134.9962 225.1431 15.53318604548807
SKYSAT-C11              
1 42987U 17068A   26185.39503623  .00040816  00000+0  52796-3 0  9995
2 42987  97.4373 334.9871 0000507 161.2582 198.8692 15.58821897485922
SKYSAT-C9               
1 42989U 17068C   26185.63290475  .00023734  00000+0  55681-3 0  9998
2 42989  97.4451 323.7579 0009291  78.2825 281.9464 15.42013324485447
SKYSAT-C8               
1 42990U 17068D   26185.64473427  .00019038  00000+0  52197-3 0  9992
2 42990  97.4548 322.5339 0001202  96.1463 263.9918 15.37333159484996
SKYSAT-C7               
1 42991U 17068E   26185.11815399  .00013456  00000+0  37044-3 0  9995
2 42991  97.4559 322.9903 0006593  56.7606 303.4269 15.37264492484979
SKYSAT-C6               
1 42992U 17068F   26185.62663199  .00015807  00000+0  47808-3 0  9992
2 42992  97.4597 323.4064 0005202 104.6209 255.5610 15.34280594484991
